#cP2024  2 12  6  0  0.00000000     577 d+D   IGS20 EXT AIUB
## 2301 108000.00000000   300.00000000 60352 0.2500000000000
+   78   G01G02G03G04G05G06G07G08G09G10G11G12G13G14G15G16G17
+        G18G19G20G21G22G23G24G25G26G27G28G29G30G31G32R01R02
+        R03R04R05R07R08R09R11R12R13R14R15R16R17R18R19R20R21
+        R22R24E02E03E04E05E07E08E09E10E11E12E13E14E15E18E19
+        E21E24E25E26E27E30E31E33E34E36  0  0  0  0  0  0  0
++         8  7  7  7  7  6  7  6  6  6  7  7  7  6  7  7  7
++         7  7  7  7  7  6  6  6  7  6  8  7  5  7  5  9  7
++         8  8  8  8  8  6  6  7  7  6  7  7  8  7  9  9  7
++         7  8  5  6  7  6  7  6  6  6  6  8  6  7  7  7  7
++         7  6  6  7  6  9  6  7  7  7  0  0  0  0  0  0  0
%c M  cc GPS ccc cccc cccc cccc cccc ccccc ccccc ccccc ccccc
%c cc cc ccc ccc cccc cccc cccc cccc ccccc ccccc ccccc ccccc
%f  1.2500000  1.025000000  0.00000000000  0.000000000000000
%f  0.0000000  0.000000000  0.00000000000  0.000000000000000
%i    0    0    0    0      0      0      0      0         0
%i    0    0    0    0      0      0      0      0         0
/* Center for Orbit Determination in Europe (CODE)          
/* Ultra-rapid GRE orbits starting year-day 24043 06 hour   
/* Observed/predicted: 25/23 hours (data used up to 044G)   
/* PCV:IGS20      OL/AL:FES2014b NONE     YN ORB:CoN CLK:BRD
*  2024  2 13  2 20  0.00000000
PG01  18673.853001  12346.602334 -14894.384294    169.330584
PG02  11838.423104  13528.649569 -19143.504812   -486.307668
PG03  11995.176863  23633.607895   2411.682297    189.598042
PG04   5467.681374  15963.240072  20491.881803    290.312951
PG05  -4870.274080 -24276.329595   9311.629312   -161.604401
PG06  21514.957166  -6706.753135  14210.957123    409.249642
PG07  25786.236945   6167.069666   4509.000348    -60.625112
PG08  -1133.629974  21238.915308 -15728.113170   -166.743906
PG09  15570.758782   3669.926615  21129.892105     90.312455
PG10 -14402.241440   3474.570800 -21858.047642      0.106411
PG11  10904.743106 -12685.824243  20644.048982   -573.905836
PG12 -10077.870859 -24523.659599   1820.153979   -477.435844
PG13  11431.081082 -21635.723774 -10248.376312    625.018534
PG14  16449.539886    554.939641 -20855.920711    324.276174
PG15  -1669.601591 -21616.443588 -15693.706929    127.128909
PG16  -2652.017627  22145.623572  13732.405677   -363.869412
PG17  20289.673204  -9043.201014 -14247.633366    717.165776
PG18 -26014.298803  -5212.539512   2638.162954   -554.342605
PG19  20427.007222 -15243.392147  -6956.352896    439.896004
PG20   4445.665994 -17974.739930  19162.471273    387.712005
PG21   6713.508562  14650.155193 -20796.879285    135.134200
PG22  12949.429550  -8164.938178 -21303.622056     32.140821
PG23 -17579.411252  -9610.507978 -17510.685623    155.012962
PG24  -9540.215401 -15094.561999 -20186.352924   -430.795882
PG25 -16556.616186 -17709.918906  10815.233819    488.412534
PG26  -9320.611350  14320.278991  20102.155776    190.800869
PG27 -11758.449157  22913.286070  -5745.959770     -3.537996
PG28 -23118.685631   6210.606346  11478.334591   -129.213798
PG29 -14016.072900  -6293.303479  21626.385051   -607.088321
PG30  25854.830268  -1702.162951  -6323.114455   -433.302672
PG31 -16301.985917  10678.007184  18013.456301   -227.747043
PG32 -19662.530749  12618.392735 -12233.319237   -611.314212
PR01  -5417.527669  24929.548015    416.336013     77.028018
PR02   2989.725031  19075.934784  16679.007362    -22.459700
PR03  10575.726420   2501.055596  23128.231987     94.414219
PR04  12034.881678 -14903.199506  16886.097675    223.205806
PR05   7271.023600 -24416.849595   1541.114431    126.831485
PR07 -10740.280227  -1660.363700 -23030.689045     75.700729
PR08 -11928.680237  15194.318685 -16574.599934    -74.376569
PR09 -15869.656529 -18849.767325  -6424.165819    169.701581
PR11 -13779.147479    968.813131  21445.570386     34.524585
PR12   1875.446662  15338.087803  20306.919430     36.685032
PR13  14300.841075  19223.035896   8725.037998    -44.297231
PR14  19959.048451  11790.030382 -10659.495508     26.056482
PR15  12906.179571  -2193.090726 -21881.631114     82.250313
PR16  -1792.947977 -15068.158887 -20492.268811     23.239855
PR17  22637.354307   -689.569111 -11692.638865     60.789236
PR18  23660.889002  -8402.612047   4681.989773    127.104282
PR19  14399.249014 -11417.098571  17696.053169   -265.599142
PR20  -7718.276690  -8615.188777  22739.867009   -108.171818
PR21 -22783.227226    700.975749  11472.161008    -76.530045
PR22 -23470.467052   8201.386394  -5635.274415    107.835564
PR24   8821.768033   8493.153424 -22355.274951    -43.690797
PE02  17191.703570  21247.835680 -11350.990386    102.952413
PE03  13108.582145  10764.663774  24256.628587    -93.460693
PE04 -22167.733978   9112.522575 -17360.403204   -326.002877
PE05  -3451.084456  24055.901674  16902.936616   4719.520132
PE07  18346.028730 -23211.946868    794.990920   -103.480591
PE08  21976.236063  -8502.552212  17911.205612   -223.018669
PE09 -18389.888188  23184.044064   -904.184931   -334.092866
PE10 -25178.258585   6101.519350 -14316.819603   -601.520357
PE11 -16636.119193  11823.148007 -21435.716787   3249.648702
PE12 -29004.171303     70.943626  -5844.495571   -903.996397
PE13  17306.331846 -11457.466993  21118.309219    -20.165826
PE14  18726.903278   5117.674419 -20937.094529 999999.999999
PE15  29124.322892    262.497095   5329.477552    -85.497017
PE18 -23710.729107  12686.147580  11556.898034 999999.999999
PE19 -11275.433732 -12758.662610 -24204.063111   -625.661942
PE21  -6723.975802 -28075.256158  -6562.653990   -578.737704
PE24  -8543.714762  18442.952063  21486.582584   -595.196280
PE25   6446.358541  28043.714090   6916.733177      0.816453
PE26  -5139.134187 -16460.390130  24067.416311    367.183392
PE27   8169.979424 -18812.875414 -21353.898665   -273.338921
PE30  18183.960853   1711.221958 -23307.809262 999999.999999
PE31 -18084.260053  -1448.547042  23388.029230    -15.875252
PE33 -23302.167838 -11918.595135  13831.599138      7.506906
PE34  23721.383753  11621.714400 -13354.876109    -94.327114
PE36   4449.285476  16292.086812 -24304.102041   -185.170777
EOF
